NORAD_CAT_ID,OBJECT_NAME,OBJECT_TYPE,EPOCH,MEAN_MOTION,ECCENTRICITY,INCLINATION,RA_OF_ASC_NODE,ARG_OF_PERICENTER,MEAN_ANOMALY,BSTAR,MEAN_MOTION_DOT,MEAN_MOTION_DDOT,TLE_LINE0,TLE_LINE1,TLE_LINE2,SEMIMAJOR_AXIS,PERIOD,APOGEE,PERIGEE,DECAYED
53970.0,STARLINK-4567,PAYLOAD,2023-08-06 04:44:16,15.088598,0.0001074,53.2154,148.1301,101.9795,258.1318,0.00032187,4.841e-05,0.0,0 STARLINK-4567,1 53970U 22125G   23218.19741545  .00004841  00000-0  32187-3 0  9999,2 53970  53.2154 148.1301 0001074 101.9795 258.1318 15.08859800 46572,6917.82,95.436,540.428,538.942,0.0
53970.0,STARLINK-4567,PAYLOAD,2023-08-06 12:41:13,15.08831344,0.0001885,53.2159,146.6432,84.0331,276.0876,-5.4425e-05,-1.154e-05,0.0,0 STARLINK-4567,1 53970U 22125G   23218.52863403 -.00001154  00000-0 -54425-4 0  9990,2 53970  53.2159 146.6432 0001885  84.0331 276.0876 15.08831344 46629,6917.907,95.438,541.076,538.468,0.0
53970.0,STARLINK-4567,PAYLOAD,2023-08-07 18:53:34,15.08837624,0.0001081,53.2154,140.994,81.6996,278.4119,0.00025051,3.701e-05,0.0,0 STARLINK-4567,1 53970U 22125G   23219.78719949  .00003701  00000-0  25051-3 0  9994,2 53970  53.2154 140.9940 0001081  81.6996 278.4119 15.08837624 46817,6917.888,95.438,540.5,539.005,0.0
53970.0,STARLINK-4567,PAYLOAD,2023-08-08 04:25:52,15.0886497,0.0001131,53.2146,139.2111,72.7628,287.3488,0.0017345,0.00027443,0.0,0 STARLINK-4567,1 53970U 22125G   23220.18464065  .00027443  00000-0  17345-2 0  9991,2 53970  53.2146 139.2111 0001131  72.7628 287.3488 15.08864970 46876,6917.804,95.436,540.451,538.887,0.0
53970.0,STARLINK-4567,PAYLOAD,2023-08-09 02:41:15,15.08893326,0.0001119,53.2148,135.0477,73.3223,286.7892,0.0013403,0.00021138,0.0,0 STARLINK-4567,1 53970U 22125G   23221.11198019  .00021138  00000-0  13403-2 0  9994,2 53970  53.2148 135.0477 0001119  73.3223 286.7892 15.08893326 47017,6917.717,95.434,540.356,538.808,0.0
53970.0,STARLINK-4567,PAYLOAD,2023-08-10 02:32:02,15.08844463,0.0001115,53.215,130.5864,98.848,261.2639,0.00032686,4.919e-05,0.0,0 STARLINK-4567,1 53970U 22125G   23222.10558457  .00004919  00000-0  32686-3 0  9993,2 53970  53.2150 130.5864 0001115  98.8480 261.2639 15.08844463 47164,6917.867,95.437,540.503,538.96,0.0
53970.0,STARLINK-4567,PAYLOAD,2023-08-10 18:25:54,15.08818184,0.0001229,53.214,127.6145,94.55,265.5632,0.00059932,9.257e-05,0.0,0 STARLINK-4567,1 53970U 22125G   23222.76798919  .00009257  00000-0  59932-3 0  9997,2 53970  53.2140 127.6145 0001229  94.5500 265.5632 15.08818184 47266,6917.947,95.439,540.662,538.962,0.0
53970.0,STARLINK-4567,PAYLOAD,2023-08-12 02:13:37,15.088407,0.0001174,53.2167,121.6667,97.2484,262.8641,0.0002338,3.435e-05,0.0,0 STARLINK-4567,1 53970U 22125G   23224.09279606  .00003435  00000-0  23380-3 0  9992,2 53970  53.2167 121.6667 0001174  97.2484 262.8641 15.08840700 47469,6917.878,95.438,540.555,538.931,0.0
53970.0,STARLINK-4567,PAYLOAD,2023-08-13 02:04:24,15.08844075,0.0001174,53.2167,117.2056,88.1157,271.997,0.00020397,2.96e-05,0.0,0 STARLINK-4567,1 53970U 22125G   23225.08639638  .00002960  00000-0  20397-3 0  9994,2 53970  53.2167 117.2056 0001174  88.1157 271.9970 15.08844075 47610,6917.868,95.437,540.545,538.921,0.0
53970.0,STARLINK-4567,PAYLOAD,2023-08-15 01:45:58,15.08842272,0.0001195,53.2157,108.284,88.8863,271.2266,0.00017179,2.447e-05,0.0,0 STARLINK-4567,1 53970U 22125G   23227.07359916  .00002447  00000-0  17179-3 0  9997,2 53970  53.2157 108.2840 0001195  88.8863 271.2266 15.08842272 47915,6917.873,95.437,540.565,538.912,0.0
53970.0,STARLINK-4567,PAYLOAD,2023-08-16 15:55:14,15.08841405,0.0001387,53.2143,101.1481,89.4493,270.6658,8.9068e-05,1.13e-05,0.0,0 STARLINK-4567,1 53970U 22125G   23228.66335949  .00001130  00000-0  89068-4 0  9998,2 53970  53.2143 101.1481 0001387  89.4493 270.6658 15.08841405 48154,6917.876,95.437,540.701,538.782,0.0
53970.0,STARLINK-4567,PAYLOAD,2023-08-18 01:18:19,15.08848914,0.0001548,53.214,94.9037,95.5179,264.5989,0.00020668,3.004e-05,0.0,0 STARLINK-4567,1 53970U 22125G   23230.05439277  .00003004  00000-0  20668-3 0  9995,2 53970  53.2140  94.9037 0001548  95.5179 264.5989 15.08848914 48369,6917.853,95.437,540.789,538.647,0.0
53970.0,STARLINK-4567,PAYLOAD,2023-08-19 01:09:07,15.08831611,0.0001387,53.2132,90.4431,93.5726,266.5425,-5.2496e-05,-1.123e-05,0.0,0 STARLINK-4567,1 53970U 22125G   23231.04800395 -.00001123  00000-0 -52496-4 0  9995,2 53970  53.2132  90.4431 0001387  93.5726 266.5425 15.08831611 48516,6917.906,95.438,540.731,538.812,0.0
53970.0,STARLINK-4567,PAYLOAD,2023-08-20 18:29:09,15.08847204,0.0001351,53.2153,82.7109,87.9078,272.2069,0.00037842,5.741e-05,0.0,0 STARLINK-4567,1 53970U 22125G   23232.77024429  .00005741  00000-0  37842-3 0  9997,2 53970  53.2153  82.7109 0001351  87.9078 272.2069 15.08847204 48774,6917.858,95.437,540.658,538.789,0.0
53970.0,STARLINK-4567,PAYLOAD,2023-08-21 00:50:42,15.08839076,0.0001599,53.2167,81.5228,81.8326,278.2848,9.0218e-05,1.148e-05,0.0,0 STARLINK-4567,1 53970U 22125G   23233.03520876  .00001148  00000-0  90218-4 0  9998,2 53970  53.2167  81.5228 0001599  81.8326 278.2848 15.08839076 48815,6917.883,95.438,540.854,538.642,0.0
53970.0,STARLINK-4567,PAYLOAD,2023-08-21 21:30:42,15.08851025,0.0001032,53.2153,77.6562,83.2968,276.8142,0.00035345,5.343e-05,0.0,0 STARLINK-4567,1 53970U 22125G   23233.89632533  .00005343  00000-0  35345-3 0  9996,2 53970  53.2153  77.6562 0001032  83.2968 276.8142 15.08851025 48940,6917.847,95.437,540.426,538.998,0.0
53970.0,STARLINK-4567,PAYLOAD,2023-08-22 13:24:34,15.08843787,0.0001034,53.2152,74.6825,78.9201,281.1907,0.00015416,2.167e-05,0.0,0 STARLINK-4567,1 53970U 22125G   23234.55872750  .00002167  00000-0  15416-3 0  9995,2 53970  53.2152  74.6825 0001034  78.9201 281.1907 15.08843787 49047,6917.869,95.437,540.449,539.019,0.0
53970.0,STARLINK-4567,PAYLOAD,2023-08-24 16:16:54,15.08831331,0.0001283,53.2158,65.166,88.9407,271.1732,0.00015155,2.124e-05,0.0,0 STARLINK-4567,1 53970U 22125G   23236.67841319  .00002124  00000-0  15155-3 0  9990,2 53970  53.2158  65.1660 0001283  88.9407 271.1732 15.08831331 49362,6917.907,95.438,540.659,538.884,0.0
53970.0,STARLINK-4567,PAYLOAD,2023-08-24 22:38:27,15.08842695,0.0001555,53.2147,63.9783,67.8235,292.2922,0.00011801,1.591e-05,0.0,0 STARLINK-4567,1 53970U 22125G   23236.94336942  .00001591  00000-0  11801-3 0  9992,2 53970  53.2147  63.9783 0001555  67.8235 292.2922 15.08842695 49404,6917.872,95.437,540.813,538.661,0.0
53970.0,STARLINK-4567,PAYLOAD,2023-08-25 19:18:27,15.08839964,0.00011,53.2162,60.11,84.007,276.1048,4.2374e-05,3.87e-06,0.0,0 STARLINK-4567,1 53970U 22125G   23237.80449003  .00000387  00000-0  42374-4 0  9993,2 53970  53.2162  60.1100 0001100  84.0070 276.1048 15.08839964 49479,6917.88,95.438,540.506,538.985,0.0
53970.0,STARLINK-4567,PAYLOAD,2023-08-25 22:29:14,15.08841045,0.0001122,53.2164,59.515,92.8744,267.2377,5.8495e-05,6.43e-06,0.0,0 STARLINK-4567,1 53970U 22125G   23237.93696943  .00000643  00000-0  58495-4 0  9990,2 53970  53.2164  59.5150 0001122  92.8744 267.2377 15.08841045 49555,6917.877,95.437,540.518,538.966,0.0
53970.0,STARLINK-4567,PAYLOAD,2023-08-26 17:33:52,15.08835215,0.0001041,53.2171,55.9456,93.0143,267.0969,0.00033085,4.981e-05,0.0,0 STARLINK-4567,1 53970U 22125G   23238.73185339  .00004981  00000-0  33085-3 0  9997,2 53970  53.2171  55.9456 0001041  93.0143 267.0969 15.08835215 49678,6917.895,95.438,540.48,539.04,0.0
53970.0,STARLINK-4567,PAYLOAD,2023-08-26 20:44:37,15.08846217,0.0001171,53.2173,55.35,86.4966,273.616,0.00018149,2.602e-05,0.0,0 STARLINK-4567,1 53970U 22125G   23238.86432812  .00002602  00000-0  18149-3 0  9994,2 53970  53.2173  55.3500 0001171  86.4966 273.6160 15.08846217 49633,6917.861,95.437,540.536,538.916,0.0
53970.0,STARLINK-4567,PAYLOAD,2023-08-27 17:24:38,15.08843925,0.0001126,53.2168,51.4865,77.6643,282.4475,0.00011191,1.494e-05,0.0,0 STARLINK-4567,1 53970U 22125G   23239.72544985  .00001494  00000-0  11191-3 0  9993,2 53970  53.2168  51.4865 0001126  77.6643 282.4475 15.08843925 49823,6917.868,95.437,540.512,538.954,0.0
53970.0,STARLINK-4567,PAYLOAD,2023-08-27 20:35:24,15.08847227,0.0001086,53.2171,50.8908,87.355,272.7566,0.0001464,2.043e-05,0.0,0 STARLINK-4567,1 53970U 22125G   23239.85792753  .00002043  00000-0  14640-3 0  9998,2 53970  53.2171  50.8908 0001086  87.3550 272.7566 15.08847227 49785,6917.858,95.437,540.475,538.972,0.0
53970.0,STARLINK-4567,PAYLOAD,2023-08-28 17:15:26,15.08838592,0.0001007,53.2167,47.027,86.1488,273.9619,-8.7985e-06,-4.28e-06,0.0,0 STARLINK-4567,1 53970U 22125G   23240.71905222 -.00000428  00000-0 -87985-5 0  9993,2 53970  53.2167  47.0270 0001007  86.1488 273.9619 15.08838592 49978,6917.885,95.438,540.446,539.053,0.0
53970.0,STARLINK-4567,PAYLOAD,2023-08-29 17:06:13,15.08842572,0.0001091,53.2171,42.5672,89.4618,270.6499,6.483e-05,7.44e-06,0.0,0 STARLINK-4567,1 53970U 22125G   23241.71265274  .00000744  00000-0  64830-4 0  9992,2 53970  53.2171  42.5672 0001091  89.4618 270.6499 15.08842572 50068,6917.873,95.437,540.492,538.983,0.0
53970.0,STARLINK-4567,PAYLOAD,2023-08-30 16:57:00,15.0884527,0.000114,53.2176,38.1056,91.0446,269.0676,0.00010499,1.384e-05,0.0,0 STARLINK-4567,1 53970U 22125G   23242.70625068  .00001384  00000-0  10499-3 0  9995,2 53970  53.2176  38.1056 0001140  91.0446 269.0676 15.08845270 50273,6917.864,95.437,540.518,538.941,0.0
53970.0,STARLINK-4567,PAYLOAD,2023-08-31 13:37:01,15.08838343,0.0001109,53.2176,34.2406,84.9784,275.1335,9.7246e-05,1.26e-05,0.0,0 STARLINK-4567,1 53970U 22125G   23243.56737569  .00001260  00000-0  97246-4 0  9999,2 53970  53.2176  34.2406 0001109  84.9784 275.1335 15.08838343 50408,6917.885,95.438,540.518,538.983,0.0
53970.0,STARLINK-4567,PAYLOAD,2023-08-31 19:58:33,15.08847864,0.0001341,53.2177,33.0511,69.2994,290.8142,0.00011522,1.547e-05,0.0,0 STARLINK-4567,1 53970U 22125G   23243.83233036  .00001547  00000-0  11522-3 0  9999,2 53970  53.2177  33.0511 0001341  69.2994 290.8142 15.08847864 50385,6917.856,95.437,540.649,538.794,0.0
